25417,ORBCOMM FM16,1998,100.11,-1.0,-,44.99,Inactive,0,LEO,Eastern Range Airspace,ORBCOMM,Unknown,Unknown,Unknown,1 25417U 98046E   25068.60931759  .00002505  00000+0  85955-3 0  9993,2 25417  44.9929 285.5861 0004590 148.0324 212.0803 14.38413239389917,14.38413239,0.000459,LEO
25418,ORBCOMM FM15,1998,100.13,45.0,-,45.0,Inactive,1,LEO,Eastern Range Airspace,ORBCOMM,Commercial,Communications,Pegasus,1 25418U 98046F   25068.00558895  .00002072  00000+0  72398-3 0  9990,2 25418  44.9965 293.3020 0004049 144.3503 215.7616 14.38078937389823,14.38078937,0.0004049,LEO
25419,ORBCOMM FM14,1998,100.11,45.0,-,45.0,Inactive,1,LEO,Eastern Range Airspace,ORBCOMM,Commercial,Communications,Pegasus,1 25419U 98046G   25068.04761729  .00002046  00000+0  71100-3 0  9998,2 25419  44.9954 291.6166 0003076 133.4524 226.6580 14.38400823389795,14.38400823,0.0003076,LEO
25475,ORBCOMM FM21,1998,100.21,45.0,-,45.01,Inactive,1,LEO,Eastern Range Airspace,ORBCOMM,Commercial,Communications,Pegasus,1 25475U 98053A   25068.34080402  .00002547  00000+0  89871-3 0  9993,2 25475  45.0092  22.2286 0001622 356.1734   3.9102 14.36995372382880,14.36995372,0.0001622,LEO
25476,ORBCOMM FM22,1998,100.15,-1.0,-,45.01,Inactive,0,LEO,Eastern Range Airspace,ORBCOMM,Unknown,Unknown,Unknown,1 25476U 98053B   25068.30818745  .00002787  00000+0  96086-3 0  9991,2 25476  45.0086  18.0078 0002725  41.0907 319.0146 14.37916751382898,14.37916751,0.0002725,LEO
25477,ORBCOMM FM23,1998,100.2,45.0,-,45.01,Inactive,1,LEO,Eastern Range Airspace,ORBCOMM,Commercial,Communications,Pegasus,1 25477U 98053C   25068.35309494  .00002653  00000+0  93147-3 0  9990,2 25477  45.0091  24.4216 0002116  22.5167 337.5773 14.37135532383034,14.37135532,0.0002116,LEO
25420,ORBCOMM FM13,1998,100.19,45.0,-,45.0,Inactive,1,LEO,Eastern Range Airspace,ORBCOMM,Commercial,Communications,Pegasus,1 25420U 98046H   25068.70321133  .00001946  00000+0  69409-3 0  9991,2 25420  44.9974 295.5452 0005047 130.4341 229.6948 14.37270576390055,14.37270576,0.0005047,LEO
25416,ORBCOMM FM20,1998,100.22,45.0,+,44.99,Active,1,LEO,Eastern Range Airspace,ORBCOMM,Commercial,Communications,Pegasus,1 25416U 98046D   25068.56844979  .00001713  00000+0  62165-3 0  9992,2 25416  44.9941 292.9413 0000919 101.4186 258.6765 14.36858484389933,14.36858484,9.19e-05,LEO
